{"type": "FeatureCollection", "features": [ {"type": "Feature", "properties": {"norad_id": 66840, "name": "STARLINK-35837", "group": "last-30-days", "lat": 35.0642288528987, "lon": -23.48802090131875, "alt_km": 407.82147637692105, "timestamp": "2025-12-22T14:45:56.098048+00:00", "meta": {"OBJECT_NAME": "STARLINK-35837", "OBJECT_ID": "2025-280V", "EPOCH": "2025-12-22T06:00:02.000160", "MEAN_MOTION": 15.52528673, "ECCENTRICITY": 0.00032592, "INCLINATION": 70.0002, "RA_OF_ASC_NODE": 172.3236, "ARG_OF_PERICENTER": 270.5237, "MEAN_ANOMALY": 351.1436, "EPHEMERIS_TYPE": 0, "CLASSIFICATION_TYPE": "U", "NORAD_CAT_ID": 66840, "ELEMENT_SET_NO": 999, "REV_AT_EPOCH": 442, "BSTAR": -5.7976816e-05, "MEAN_MOTION_DOT": -3.734e-05, "MEAN_MOTION_DDOT": 0}, "tle": {"line1": "1 66840U 25280V   25356.25002315 -.00003734  00000+0 -57977-4 0  9997", "line2": "2 66840  70.0002 172.3236 0003259 270.5237 351.1436 15.52528673  4421"}}, "geometry": {"type": "Point", "coordinates": [-23.48802090131875, 35.0642288528987]}}, {"type": "Feature", "properties": {"norad_id": 66841, "name": "STARLINK-35715", "group": "last-30-days", "lat": 33.258284164225216, "lon": -22.498589464977137, "alt_km": 408.16819275884245, "timestamp": "2025-12-22T14:45:56.098058+00:00", "meta": {"OBJECT_NAME": "STARLINK-35715", "OBJECT_ID": "2025-280W", "EPOCH": "2025-12-22T06:00:02.000160", "MEAN_MOTION": 15.52519104, "ECCENTRICITY": 0.00032213, "INCLINATION": 70.0002, "RA_OF_ASC_NODE": 172.3213, "ARG_OF_PERICENTER": 269.8778, "MEAN_ANOMALY": 353.8117, "EPHEMERIS_TYPE": 0, "CLASSIFICATION_TYPE": "U", "NORAD_CAT_ID": 66841, "ELEMENT_SET_NO": 999, "REV_AT_EPOCH": 442, "BSTAR": -0.0010080969, "MEAN_MOTION_DOT": -0.00061707, "MEAN_MOTION_DDOT": 0}, "tle": {"line1": "1 66841U 25280W   25356.25002315 -.00061707  00000+0 -10081-2 0  9995", "line2": "2 66841  70.0002 172.3213 0003221 269.8778 353.8117 15.52519104  4421"}}, "geometry": {"type": "Point", "coordinates": [-22.498589464977137, 33.258284164225216]}}, {"type": "Feature", "properties": {"norad_id": 66842, "name": "STARLINK-35769", "group": "last-30-days", "lat": 31.517932923486292, "lon": -21.588063574911565, "alt_km": 408.4034889088225, "timestamp": "2025-12-22T14:45:56.098067+00:00", "meta": {"OBJECT_NAME": "STARLINK-35769", "OBJECT_ID": "2025-280X", "EPOCH": "2025-12-22T06:00:02.000160", "MEAN_MOTION": 15.52424228, "ECCENTRICITY": 0.00032086, "INCLINATION": 70.0001, "RA_OF_ASC_NODE": 172.318, "ARG_OF_PERICENTER": 272.1171, "MEAN_ANOMALY": 353.5252, "EPHEMERIS_TYPE": 0, "CLASSIFICATION_TYPE": "U", "NORAD_CAT_ID": 66842, "ELEMENT_SET_NO": 999, "REV_AT_EPOCH": 442, "BSTAR": 0.0014738059, "MEAN_MOTION_DOT": 0.00091238, "MEAN_MOTION_DDOT": 0}, "tle": {"line1": "1 66842U 25280X   25356.25002315  .00091238  00000+0  14738-2 0  9999", "line2": "2 66842  70.0001 172.3180 0003208 272.1171 353.5252 15.52424228  4422"}}, "geometry": {"type": "Point", "coordinates": [-21.588063574911565, 31.517932923486292]}}, {"type": "Feature", "properties": {"norad_id": 66843, "name": "STARLINK-35997", "group": "last-30-days", "lat": 27.98129127709932, "lon": -19.84393589876733, "alt_km": 408.8207439536818, "timestamp": "2025-12-22T14:45:56.098078+00:00", "meta": {"OBJECT_NAME": "STARLINK-35997", "OBJECT_ID": "2025-280Y", "EPOCH": "2025-12-22T06:00:02.000160", "MEAN_MOTION": 15.5251456, "ECCENTRICITY": 0.00032127, "INCLINATION": 70.0004, "RA_OF_ASC_NODE": 172.3135, "ARG_OF_PERICENTER": 269.412, "MEAN_ANOMALY": 0.0284, "EPHEMERIS_TYPE": 0, "CLASSIFICATION_TYPE": "U", "NORAD_CAT_ID": 66843, "ELEMENT_SET_NO": 999, "REV_AT_EPOCH": 442, "BSTAR": -0.00092660715, "MEAN_MOTION_DOT": -0.00056759, "MEAN_MOTION_DDOT": 0}, "tle": {"line1": "1 66843U 25280Y   25356.25002315 -.00056759  00000+0 -92661-3 0  9993", "line2": "2 66843  70.0004 172.3135 0003212 269.4120   0.0284 15.52514560  4422"}}, "geometry": {"type": "Point", "coordinates": [-19.84393589876733, 27.98129127709932]}}, {"type": "Feature", "properties": {"norad_id": 66844, "name": "STARLINK-36073", "group": "last-30-days", "lat": 29.749248800625722, "lon": -20.69808056018357, "alt_km": 408.6347481106868, "timestamp": "2025-12-22T14:45:56.098090+00:00", "meta": {"OBJECT_NAME": "STARLINK-36073", "OBJECT_ID": "2025-280Z", "EPOCH": "2025-12-22T06:00:02.000160", "MEAN_MOTION": 15.52512158, "ECCENTRICITY": 0.00031792, "INCLINATION": 70.0002, "RA_OF_ASC_NODE": 172.3167, "ARG_OF_PERICENTER": 271.3108, "MEAN_ANOMALY": 356.2084, "EPHEMERIS_TYPE": 0, "CLASSIFICATION_TYPE": "U", "NORAD_CAT_ID": 66844, "ELEMENT_SET_NO": 999, "REV_AT_EPOCH": 442, "BSTAR": -0.00078225143, "MEAN_MOTION_DOT": -0.0004799, "MEAN_MOTION_DDOT": 0}, "tle": {"line1": "1 66844U 25280Z   25356.25002315 -.00047990  00000+0 -78225-3 0  9991", "line2": "2 66844  70.0002 172.3167 0003179 271.3108 356.2084 15.52512158  4421"}}, "geometry": {"type": "Point", "coordinates": [-20.69808056018357, 29.749248800625722]}}, {"type": "Feature", "properties": {"norad_id": 66845, "name": "STARLINK-36068", "group": "last-30-days", "lat": 22.65855169395279, "lon": -17.438687363636493, "alt_km": 409.501612308517, "timestamp": "2025-12-22T14:45:56.098106+00:00", "meta": {"OBJECT_NAME": "STARLINK-36068", "OBJECT_ID": "2025-280AA", "EPOCH": "2025-12-22T06:00:02.000160", "MEAN_MOTION": 15.52515592, "ECCENTRICITY": 0.0003108, "INCLINATION": 70.0004, "RA_OF_ASC_NODE": 172.3068, "ARG_OF_PERICENTER": 270.9028, "MEAN_ANOMALY": 4.2811, "EPHEMERIS_TYPE": 0, "CLASSIFICATION_TYPE": "U", "NORAD_CAT_ID": 66845, "ELEMENT_SET_NO": 999, "REV_AT_EPOCH": 442, "BSTAR": -0.00090629009, "MEAN_MOTION_DOT": -0.00055527, "MEAN_MOTION_DDOT": 0}, "tle": {"line1": "1 66845U 25280AA  25356.25002315 -.00055527  00000+0 -90629-3 0  9999", "line2": "2 66845  70.0004 172.3068 0003108 270.9028   4.2811 15.52515592  4425"}}, "geometry": {"type": "Point", "coordinates": [-17.438687363636493, 22.65855169395279]}}, {"type": "Feature", "properties": {"norad_id": 66846, "name": "STARLINK-36055", "group": "last-30-days", "lat": 26.211490883876664, "lon": -19.017916630598062, "alt_km": 409.0254796000445, "timestamp": "2025-12-22T14:45:56.098116+00:00", "meta": {"OBJECT_NAME": "STARLINK-36055", "OBJECT_ID": "2025-280AB", "EPOCH": "2025-12-22T06:00:02.000160", "MEAN_MOTION": 15.52515823, "ECCENTRICITY": 0.00031444, "INCLINATION": 70.0003, "RA_OF_ASC_NODE": 172.3116, "ARG_OF_PERICENTER": 269.8053, "MEAN_ANOMALY": 1.5468, "EPHEMERIS_TYPE": 0, "CLASSIFICATION_TYPE": "U", "NORAD_CAT_ID": 66846, "ELEMENT_SET_NO": 999, "REV_AT_EPOCH": 442, "BSTAR": -0.00087966362, "MEAN_MOTION_DOT": -0.00053913, "MEAN_MOTION_DDOT": 0}, "tle": {"line1": "1 66846U 25280AB  25356.25002315 -.00053913  00000+0 -87966-3 0  9997", "line2": "2 66846  70.0003 172.3116 0003144 269.8053   1.5468 15.52515823  4429"}}, "geometry": {"type": "Point", "coordinates": [-19.017916630598062, 26.211490883876664]}}, {"type": "Feature", "properties": {"norad_id": 66847, "name": "STARLINK-36061", "group": "last-30-days", "lat": 24.399987346760998, "lon": -18.20075928722113, "alt_km": 409.1481873738385, "timestamp": "2025-12-22T14:45:56.098126+00:00", "meta": {"OBJECT_NAME": "STARLINK-36061", "OBJECT_ID": "2025-280AC", "EPOCH": "2025-12-22T06:00:02.000160", "MEAN_MOTION": 15.52624492, "ECCENTRICITY": 0.00030264, "INCLINATION": 70.0004, "RA_OF_ASC_NODE": 172.3091, "ARG_OF_PERICENTER": 266.5015, "MEAN_ANOMALY": 6.742, "EPHEMERIS_TYPE": 0, "CLASSIFICATION_TYPE": "U", "NORAD_CAT_ID": 66847, "ELEMENT_SET_NO": 999, "REV_AT_EPOCH": 437, "BSTAR": -0.0035548439, "MEAN_MOTION_DOT": -0.00213892, "MEAN_MOTION_DDOT": 0}, "tle": {"line1": "1 66847U 25280AC  25356.25002315 -.00213892  00000+0 -35548-2 0  9990", "line2": "2 66847  70.0004 172.3091 0003026 266.5015   6.7420 15.52624492  4376"}}, "geometry": {"type": "Point", "coordinates": [-18.20075928722113, 24.399987346760998]}}, {"type": "Feature", "properties": {"norad_id": 66848, "name": "STARLINK-36091", "group": "last-30-days", "lat": -10.698156913381753, "lon": -106.16322374483215, "alt_km": 372.2419081506587, "timestamp": "2025-12-22T14:45:56.098138+00:00", "meta": {"OBJECT_NAME": "STARLINK-36091", "OBJECT_ID": "2025-281A", "EPOCH": "2025-12-22T06:00:02.000160", "MEAN_MOTION": 15.67246448, "ECCENTRICITY": 0.00012813, "INCLINATION": 43.0002, "RA_OF_ASC_NODE": 64.3278, "ARG_OF_PERICENTER": 267.0157, "MEAN_ANOMALY": 26.7285, "EPHEMERIS_TYPE": 0, "CLASSIFICATION_TYPE": "U", "NORAD_CAT_ID": 66848, "ELEMENT_SET_NO": 999, "REV_AT_EPOCH": 292, "BSTAR": -0.020387936, "MEAN_MOTION_DOT": -0.01987003, "MEAN_MOTION_DDOT": 0}, "tle": {"line1": "1 66848U 25281A   25356.25002315 -.01987003  00000+0 -20388-1 0  9990", "line2": "2 66848  43.0002  64.3278 0001281 267.0157  26.7285 15.67246448  2923"}}, "geometry": {"type": "Point", "coordinates": [-106.16322374483215, -10.698156913381753]}}, {"type": "Feature", "properties": {"norad_id": 66849, "name": "STARLINK-36102", "group": "last-30-days", "lat": -11.974828582457343, "lon": -104.70911691255169, "alt_km": 372.34424472327464, "timestamp": "2025-12-22T14:45:56.098148+00:00", "meta": {"OBJECT_NAME": "STARLINK-36102", "OBJECT_ID": "2025-281B", "EPOCH": "2025-12-22T06:00:02.000160", "MEAN_MOTION": 15.67248523, "ECCENTRICITY": 0.00012533, "INCLINATION": 43.0002, "RA_OF_ASC_NODE": 64.3225, "ARG_OF_PERICENTER": 266.5843, "MEAN_ANOMALY": 29.0772, "EPHEMERIS_TYPE": 0, "CLASSIFICATION_TYPE": "U", "NORAD_CAT_ID": 66849, "ELEMENT_SET_NO": 999, "REV_AT_EPOCH": 292, "BSTAR": -0.020431002, "MEAN_MOTION_DOT": -0.01990823, "MEAN_MOTION_DDOT": 0}, "tle": {"line1": "1 66849U 25281B   25356.25002315 -.01990823  00000+0 -20431-1 0  9994", "line2": "2 66849  43.0002  64.3225 0001253 266.5843  29.0772 15.67248523  2924"}}, "geometry": {"type": "Point", "coordinates": [-104.70911691255169, -11.974828582457343]}}]}